[{"OBJECT_NAME":"STARLINK-5750","OBJECT_ID":"2023-020AB","EPOCH":"2026-03-09T22:00:01.999584","MEAN_MOTION":15.1157446,"ECCENTRICITY":0.00010799,"INCLINATION":42.9996,"RA_OF_ASC_NODE":2.8154,"ARG_OF_PERICENTER":239.6654,"MEAN_ANOMALY":3.4658,"EPHEMERIS_TYPE":0,"CLASSIFICATION_TYPE":"U","NORAD_CAT_ID":55594,"ELEMENT_SET_NO":999,"REV_AT_EPOCH":577,"BSTAR":0.070030439,"MEAN_MOTION_DOT":0.01312742,"MEAN_MOTION_DDOT":0},{"OBJECT_NAME":"FLOCK 4H-29","OBJECT_ID":"2025-276BU","EPOCH":"2026-03-09T18:19:22.672704","MEAN_MOTION":15.1849364,"ECCENTRICITY":0.00036497,"INCLINATION":97.4237,"RA_OF_ASC_NODE":143.9355,"ARG_OF_PERICENTER":34.6644,"MEAN_ANOMALY":325.4828,"EPHEMERIS_TYPE":0,"CLASSIFICATION_TYPE":"U","NORAD_CAT_ID":66732,"ELEMENT_SET_NO":999,"REV_AT_EPOCH":1532,"BSTAR":0.00039233753,"MEAN_MOTION_DOT":8.028e-5,"MEAN_MOTION_DDOT":0}]
